[{"OBJECT_NAME":"COSMOS 2251 DEB","OBJECT_ID":"1993-036AJ","EPOCH":"2026-03-07T04:52:52.639392","MEAN_MOTION":14.28053375,"ECCENTRICITY":0.0077033,"INCLINATION":73.9836,"RA_OF_ASC_NODE":356.3604,"ARG_OF_PERICENTER":128.7366,"MEAN_ANOMALY":348.236,"EPHEMERIS_TYPE":0,"CLASSIFICATION_TYPE":"U","NORAD_CAT_ID":33793,"ELEMENT_SET_NO":999,"REV_AT_EPOCH":88412,"BSTAR":0.00068848,"MEAN_MOTION_DOT":1.74e-5,"MEAN_MOTION_DDOT":0},{"OBJECT_NAME":"COSMOS 2251 DEB","OBJECT_ID":"1993-036AL","EPOCH":"2026-03-06T23:49:38.544672","MEAN_MOTION":15.10184081,"ECCENTRICITY":0.0030554,"INCLINATION":74.0295,"RA_OF_ASC_NODE":263.376,"ARG_OF_PERICENTER":322.9976,"MEAN_ANOMALY":166.1369,"EPHEMERIS_TYPE":0,"CLASSIFICATION_TYPE":"U","NORAD_CAT_ID":33795,"ELEMENT_SET_NO":999,"REV_AT_EPOCH":91291,"BSTAR":0.001493,"MEAN_MOTION_DOT":0.000247,"MEAN_MOTION_DDOT":0},{"OBJECT_NAME":"COSMOS 2251 DEB","OBJECT_ID":"1993-036AN","EPOCH":"2026-03-06T22:47:59.447040","MEAN_MOTION":14.58291387,"ECCENTRICITY":0.0062699,"INCLINATION":74.0451,"RA_OF_ASC_NODE":234.8549,"ARG_OF_PERICENTER":300.4954,"MEAN_ANOMALY":217.8486,"EPHEMERIS_TYPE":0,"CLASSIFICATION_TYPE":"U","NORAD_CAT_ID":33797,"ELEMENT_SET_NO":999,"REV_AT_EPOCH":90212,"BSTAR":0.0005126,"MEAN_MOTION_DOT":2.404e-5,"MEAN_MOTION_DDOT":0},{"OBJECT_NAME":"COSMOS 2251 DEB","OBJECT_ID":"1993-036AP","EPOCH":"2026-03-06T05:30:11.685888","MEAN_MOTION":14.44729021,"ECCENTRICITY":0.00900594,"INCLINATION":74.032,"RA_OF_ASC_NODE":340.3813,"ARG_OF_PERICENTER":81.0846,"MEAN_ANOMALY":72.2342,"EPHEMERIS_TYPE":0,"CLASSIFICATION_TYPE":"U","NORAD_CAT_ID":33798,"ELEMENT_SET_NO":999,"REV_AT_EPOCH":89799,"BSTAR":0.00020803032,"MEAN_MOTION_DOT":7.31e-6,"MEAN_MOTION_DDOT":0},{"OBJECT_NAME":"COSMOS 2251 DEB","OBJECT_ID":"1993-036AQ","EPOCH":"2026-03-06T23:28:44.180832","MEAN_MOTION":14.81804651,"ECCENTRICITY":0.0023045,"INCLINATION":74.0299,"RA_OF_ASC_NODE":275.6473,"ARG_OF_PERICENTER":321.4489,"MEAN_ANOMALY":107.8961,"EPHEMERIS_TYPE":0,"CLASSIFICATION_TYPE":"U","NORAD_CAT_ID":33799,"ELEMENT_SET_NO":999,"REV_AT_EPOCH":90058,"BSTAR":0.0018401,"MEAN_MOTION_DOT":0.00014597,"MEAN_MOTION_DDOT":0},{"OBJECT_NAME":"COSMOS 2251 DEB","OBJECT_ID":"1993-036AW","EPOCH":"2026-03-06T07:51:42.299424","MEAN_MOTION":14.5808427,"ECCENTRICITY":0.00621587,"INCLINATION":74.0312,"RA_OF_ASC_NODE":152.2935,"ARG_OF_PERICENTER":318.1534,"MEAN_ANOMALY":41.4887,"EPHEMERIS_TYPE":0,"CLASSIFICATION_TYPE":"U","NORAD_CAT_ID":33805,"ELEMENT_SET_NO":999,"REV_AT_EPOCH":90445,"BSTAR":0.00031120108,"MEAN_MOTION_DOT":1.44e-5,"MEAN_MOTION_DDOT":0},{"OBJECT_NAME":"COSMOS 2251 DEB","OBJECT_ID":"1993-036BC","EPOCH":"2026-03-07T03:47:04.210368","MEAN_MOTION":15.09157245,"ECCENTRICITY":0.0028083,"INCLINATION":73.8339,"RA_OF_ASC_NODE":127.1033,"ARG_OF_PERICENTER":202.9625,"MEAN_ANOMALY":188.1295,"EPHEMERIS_TYPE":0,"CLASSIFICATION_TYPE":"U","NORAD_CAT_ID":33811,"ELEMENT_SET_NO":999,"REV_AT_EPOCH":91290,"BSTAR":0.0016067,"MEAN_MOTION_DOT":0.00025801,"MEAN_MOTION_DDOT":0},{"OBJECT_NAME":"COSMOS 2251 DEB","OBJECT_ID":"1993-036BH","EPOCH":"2026-03-06T09:48:40.731264","MEAN_MOTION":13.81945833,"ECCENTRICITY":0.02654644,"INCLINATION":73.8971,"RA_OF_ASC_NODE":323.5661,"ARG_OF_PERICENTER":320.5072,"MEAN_ANOMALY":37.6963,"EPHEMERIS_TYPE":0,"CLASSIFICATION_TYPE":"U","NORAD_CAT_ID":33816,"ELEMENT_SET_NO":999,"REV_AT_EPOCH":85829,"BSTAR":0.00072497339,"MEAN_MOTION_DOT":9.92e-6,"MEAN_MOTION_DDOT":0},{"OBJECT_NAME":"COSMOS 2251 DEB","OBJECT_ID":"1993-036BK","EPOCH":"2026-03-07T03:17:42.196416","MEAN_MOTION":15.22042006,"ECCENTRICITY":0.0017106,"INCLINATION":74.0816,"RA_OF_ASC_NODE":350.6485,"ARG_OF_PERICENTER":293.2065,"MEAN_ANOMALY":66.7332,"EPHEMERIS_TYPE":0,"CLASSIFICATION_TYPE":"U","NORAD_CAT_ID":33818,"ELEMENT_SET_NO":999,"REV_AT_EPOCH":91142,"BSTAR":0.0031715,"MEAN_MOTION_DOT":0.00073508,"MEAN_MOTION_DDOT":0},{"OBJECT_NAME":"COSMOS 2251 DEB","OBJECT_ID":"1993-036BL","EPOCH":"2026-03-07T01:49:10.898112","MEAN_MOTION":14.3255597,"ECCENTRICITY":0.0092074,"INCLINATION":74.179,"RA_OF_ASC_NODE":57.25,"ARG_OF_PERICENTER":254.9385,"MEAN_ANOMALY":175.8339,"EPHEMERIS_TYPE":0,"CLASSIFICATION_TYPE":"U","NORAD_CAT_ID":33819,"ELEMENT_SET_NO":999,"REV_AT_EPOCH":88703,"BSTAR":0.00080292,"MEAN_MOTION_DOT":2.258e-5,"MEAN_MOTION_DDOT":0},{"OBJECT_NAME":"COSMOS 2251 DEB","OBJECT_ID":"1993-036BN","EPOCH":"2026-03-07T03:12:23.702688","MEAN_MOTION":15.31608437,"ECCENTRICITY":0.004307,"INCLINATION":74.0298,"RA_OF_ASC_NODE":323.5961,"ARG_OF_PERICENTER":329.5763,"MEAN_ANOMALY":30.2941,"EPHEMERIS_TYPE":0,"CLASSIFICATION_TYPE":"U","NORAD_CAT_ID":33821,"ELEMENT_SET_NO":999,"REV_AT_EPOCH":76290,"BSTAR":0.0012398,"MEAN_MOTION_DOT":0.00039116,"MEAN_MOTION_DDOT":0},{"OBJECT_NAME":"COSMOS 2251 DEB","OBJECT_ID":"1993-036BP","EPOCH":"2026-03-06T09:53:02.733216","MEAN_MOTION":14.13663416,"ECCENTRICITY":0.0147198,"INCLINATION":74.0702,"RA_OF_ASC_NODE":45.8901,"ARG_OF_PERICENTER":72.1538,"MEAN_ANOMALY":50.3898,"EPHEMERIS_TYPE":0,"CLASSIFICATION_TYPE":"U","NORAD_CAT_ID":33822,"ELEMENT_SET_NO":999,"REV_AT_EPOCH":87236,"BSTAR":0.0015338,"MEAN_MOTION_DOT":3.189e-5,"MEAN_MOTION_DDOT":0},{"OBJECT_NAME":"COSMOS 2251 DEB","OBJECT_ID":"1993-036BQ","EPOCH":"2026-03-07T03:33:00.178272","MEAN_MOTION":13.99183083,"ECCENTRICITY":0.0206792,"INCLINATION":73.8125,"RA_OF_ASC_NODE":1.3684,"ARG_OF_PERICENTER":112.3165,"MEAN_ANOMALY":313.1989,"EPHEMERIS_TYPE":0,"CLASSIFICATION_TYPE":"U","NORAD_CAT_ID":33823,"ELEMENT_SET_NO":999,"REV_AT_EPOCH":86790,"BSTAR":0.0008249,"MEAN_MOTION_DOT":1.413e-5,"MEAN_MOTION_DDOT":0},{"OBJECT_NAME":"COSMOS 2251 DEB","OBJECT_ID":"1993-036BS","EPOCH":"2026-03-07T03:18:00.152928","MEAN_MOTION":14.71441559,"ECCENTRICITY":0.0079989,"INCLINATION":73.9827,"RA_OF_ASC_NODE":223.4594,"ARG_OF_PERICENTER":171.4916,"MEAN_ANOMALY":307.5532,"EPHEMERIS_TYPE":0,"CLASSIFICATION_TYPE":"U","NORAD_CAT_ID":33825,"ELEMENT_SET_NO":999,"REV_AT_EPOCH":90120,"BSTAR":0.0021656,"MEAN_MOTION_DOT":0.00014107,"MEAN_MOTION_DDOT":0},{"OBJECT_NAME":"COSMOS 2251 DEB","OBJECT_ID":"1993-036BT","EPOCH":"2026-03-06T23:54:01.339776","MEAN_MOTION":14.52860821,"ECCENTRICITY":0.0084269,"INCLINATION":74.0622,"RA_OF_ASC_NODE":251.3525,"ARG_OF_PERICENTER":275.24,"MEAN_ANOMALY":250.6113,"EPHEMERIS_TYPE":0,"CLASSIFICATION_TYPE":"U","NORAD_CAT_ID":33826,"ELEMENT_SET_NO":999,"REV_AT_EPOCH":88992,"BSTAR":0.0021376,"MEAN_MOTION_DOT":9.197e-5,"MEAN_MOTION_DDOT":0},{"OBJECT_NAME":"COSMOS 2251 DEB","OBJECT_ID":"1993-036BV","EPOCH":"2026-03-07T00:30:55.615392","MEAN_MOTION":14.44641104,"ECCENTRICITY":0.0027163,"INCLINATION":74.0442,"RA_OF_ASC_NODE":81.3254,"ARG_OF_PERICENTER":139.0798,"MEAN_ANOMALY":250.6902,"EPHEMERIS_TYPE":0,"CLASSIFICATION_TYPE":"U","NORAD_CAT_ID":33828,"ELEMENT_SET_NO":999,"REV_AT_EPOCH":89530,"BSTAR":0.00043135,"MEAN_MOTION_DOT":1.474e-5,"MEAN_MOTION_DDOT":0}]
