COSMOS 2251 DEB         
1 33793U 93036AJ  26066.20338703  .00001740  00000+0  68848-3 0  9990
2 33793  73.9836 356.3604 0077033 128.7366 348.2360 14.28053375884120
COSMOS 2251 DEB         
1 33795U 93036AL  26065.99280723  .00024700  00000+0  14930-2 0  9998
2 33795  74.0295 263.3760 0030554 322.9976 166.1369 15.10184081912911
COSMOS 2251 DEB         
1 33797U 93036AN  26065.94999360  .00002404  00000+0  51260-3 0  9994
2 33797  74.0451 234.8549 0062699 300.4954 217.8486 14.58291387902122
COSMOS 2251 DEB         
1 33798U 93036AP  26065.22930192  .00000731  00000+0  20803-3 0  9994
2 33798  74.0320 340.3813 0090059  81.0846  72.2342 14.44729021897996
COSMOS 2251 DEB         
1 33799U 93036AQ  26065.97828913  .00014597  00000+0  18401-2 0  9999
2 33799  74.0299 275.6473 0023045 321.4489 107.8961 14.81804651900585
COSMOS 2251 DEB         
1 33805U 93036AW  26065.32757291  .00001440  00000+0  31120-3 0  9993
2 33805  74.0312 152.2935 0062158 318.1534  41.4887 14.58084270904455
COSMOS 2251 DEB         
1 33811U 93036BC  26066.15768762  .00025801  00000+0  16067-2 0  9996
2 33811  73.8339 127.1033 0028083 202.9625 188.1295 15.09157245912909
COSMOS 2251 DEB         
1 33816U 93036BH  26065.40880476  .00000992  00000+0  72497-3 0  9999
2 33816  73.8971 323.5661 0265464 320.5072  37.6963 13.81945833858291
COSMOS 2251 DEB         
1 33818U 93036BK  26066.13729394  .00073508  00000+0  31715-2 0  9993
2 33818  74.0816 350.6485 0017106 293.2065  66.7332 15.22042006911420
COSMOS 2251 DEB         
1 33819U 93036BL  26066.07582058  .00002258  00000+0  80292-3 0  9990
2 33819  74.1790  57.2500 0092074 254.9385 175.8339 14.32555970887034
COSMOS 2251 DEB         
1 33821U 93036BN  26066.13360767  .00039116  00000+0  12398-2 0  9995
2 33821  74.0298 323.5961 0043070 329.5763  30.2941 15.31608437762908
COSMOS 2251 DEB         
1 33822U 93036BP  26065.41183719  .00003189  00000+0  15338-2 0  9994
2 33822  74.0702  45.8901 0147198  72.1538  50.3898 14.13663416872367
COSMOS 2251 DEB         
1 33823U 93036BQ  26066.14791873  .00001413  00000+0  82490-3 0  9994
2 33823  73.8125   1.3684 0206792 112.3165 313.1989 13.99183083867903
COSMOS 2251 DEB         
1 33825U 93036BS  26066.13750177  .00014107  00000+0  21656-2 0  9997
2 33825  73.9827 223.4594 0079989 171.4916 307.5532 14.71441559901207
COSMOS 2251 DEB         
1 33826U 93036BT  26065.99584884  .00009197  00000+0  21376-2 0  9993
2 33826  74.0622 251.3525 0084269 275.2400 250.6113 14.52860821889928
COSMOS 2251 DEB         
1 33828U 93036BV  26066.02147703  .00001474  00000+0  43135-3 0  9993
2 33828  74.0442  81.3254 0027163 139.0798 250.6902 14.44641104895304
